{
  "links" : {
    "next" : "https://api.nasa.gov/neo/rest/v1/feed?start_date=2011-03-23&end_date=2011-03-23&detailed=true&api_key=t0TVs3DtDT2H8Oy2Zy8m2eVrNsAVKAexjcZXUckd",
    "prev" : "https://api.nasa.gov/neo/rest/v1/feed?start_date=2011-03-21&end_date=2011-03-21&detailed=true&api_key=t0TVs3DtDT2H8Oy2Zy8m2eVrNsAVKAexjcZXUckd",
    "self" : "https://api.nasa.gov/neo/rest/v1/feed?start_date=2011-03-22&end_date=2011-03-22&detailed=true&api_key=t0TVs3DtDT2H8Oy2Zy8m2eVrNsAVKAexjcZXUckd"
  },
  "element_count" : 6,
  "near_earth_objects" : {
    "2011-03-22" : [ {
      "links" : {
        "self" : "https://api.nasa.gov/neo/rest/v1/neo/2004660?api_key=t0TVs3DtDT2H8Oy2Zy8m2eVrNsAVKAexjcZXUckd"
      },
      "neo_reference_id" : "2004660",
      "name" : "4660 Nereus (1982 DB)",
      "nasa_jpl_url" : "http://ssd.jpl.nasa.gov/sbdb.cgi?sstr=2004660",
      "absolute_magnitude_h" : 18.2,
      "estimated_diameter" : {
        "kilometers" : {
          "estimated_diameter_min" : 0.6089126221,
          "estimated_diameter_max" : 1.3615700154
        },
        "meters" : {
          "estimated_diameter_min" : 608.9126221057,
          "estimated_diameter_max" : 1361.5700153859
        },
        "miles" : {
          "estimated_diameter_min" : 0.3783606449,
          "estimated_diameter_max" : 0.846040122
        },
        "feet" : {
          "estimated_diameter_min" : 1997.7448871092,
          "estimated_diameter_max" : 4467.0933692788
        }
      },
      "is_potentially_hazardous_asteroid" : true,
      "close_approach_data" : [ {
        "close_approach_date" : "2011-03-22",
        "epoch_date_close_approach" : 1300777200000,
        "relative_velocity" : {
          "kilometers_per_second" : "19.7152396837",
          "kilometers_per_hour" : "70974.8628612998",
          "miles_per_hour" : "44101.019648456"
        },
        "miss_distance" : {
          "astronomical" : "0.4449895849",
          "lunar" : "173.1009521484",
          "kilometers" : "66569496",
          "miles" : "41364368"
        },
        "orbiting_body" : "Earth"
      } ],
      "orbital_data" : {
        "orbit_id" : "105",
        "orbit_determination_date" : "2017-07-27 06:21:49",
        "orbit_uncertainty" : "0",
        "minimum_orbit_intersection" : ".00290752",
        "jupiter_tisserand_invariant" : "4.493",
        "epoch_osculation" : "2458000.5",
        "eccentricity" : ".3600073024231731",
        "semi_major_axis" : "1.488684198998776",
        "inclination" : "1.431697832801353",
        "ascending_node_longitude" : "314.4434169545978",
        "orbital_period" : "663.4409817098345",
        "perihelion_distance" : ".9527470163572247",
        "perihelion_argument" : "158.0200614561001",
        "aphelion_distance" : "2.024621381640328",
        "perihelion_time" : "2458259.655366065614",
        "mean_anomaly" : "219.3756877315948",
        "mean_motion" : ".5426255084095049",
        "equinox" : "J2000"
      }
    }, {
      "links" : {
        "self" : "https://api.nasa.gov/neo/rest/v1/neo/3406027?api_key=t0TVs3DtDT2H8Oy2Zy8m2eVrNsAVKAexjcZXUckd"
      },
      "neo_reference_id" : "3406027",
      "name" : "(2008 EZ84)",
      "nasa_jpl_url" : "http://ssd.jpl.nasa.gov/sbdb.cgi?sstr=3406027",
      "absolute_magnitude_h" : 26.2,
      "estimated_diameter" : {
        "kilometers" : {
          "estimated_diameter_min" : 0.0152951935,
          "estimated_diameter_max" : 0.0342010925
        },
        "meters" : {
          "estimated_diameter_min" : 15.2951935344,
          "estimated_diameter_max" : 34.201092472
        },
        "miles" : {
          "estimated_diameter_min" : 0.0095039897,
          "estimated_diameter_max" : 0.021251567
        },
        "feet" : {
          "estimated_diameter_min" : 50.1810827555,
          "estimated_diameter_max" : 112.2083122258
        }
      },
      "is_potentially_hazardous_asteroid" : false,
      "close_approach_data" : [ {
        "close_approach_date" : "2011-03-22",
        "epoch_date_close_approach" : 1300777200000,
        "relative_velocity" : {
          "kilometers_per_second" : "14.2757217591",
          "kilometers_per_hour" : "51392.5983328208",
          "miles_per_hour" : "31933.3620029686"
        },
        "miss_distance" : {
          "astronomical" : "0.2819209406",
          "lunar" : "109.6672439575",
          "kilometers" : "42174772",
          "miles" : "26206188"
        },
        "orbiting_body" : "Earth"
      } ],
      "orbital_data" : {
        "orbit_id" : "6",
        "orbit_determination_date" : "2017-04-06 09:03:59",
        "orbit_uncertainty" : "7",
        "minimum_orbit_intersection" : ".000781806",
        "jupiter_tisserand_invariant" : "5.996",
        "epoch_osculation" : "2458000.5",
        "eccentricity" : ".1507047388710506",
        "semi_major_axis" : "1.010858825657562",
        "inclination" : "13.09877310352923",
        "ascending_node_longitude" : "169.5095114216767",
        "orbital_period" : "371.2224115347352",
        "perihelion_distance" : ".8585176103013422",
        "perihelion_argument" : "268.2234193090242",
        "aphelion_distance" : "1.163200041013781",
        "perihelion_time" : "2458169.094368965424",
        "mean_anomaly" : "196.5024014131391",
        "mean_motion" : ".9697690355268729",
        "equinox" : "J2000"
      }
    }, {
      "links" : {
        "self" : "https://api.nasa.gov/neo/rest/v1/neo/3547771?api_key=t0TVs3DtDT2H8Oy2Zy8m2eVrNsAVKAexjcZXUckd"
      },
      "neo_reference_id" : "3547771",
      "name" : "(2010 TE)",
      "nasa_jpl_url" : "http://ssd.jpl.nasa.gov/sbdb.cgi?sstr=3547771",
      "absolute_magnitude_h" : 26.0,
      "estimated_diameter" : {
        "kilometers" : {
          "estimated_diameter_min" : 0.0167708462,
          "estimated_diameter_max" : 0.0375007522
        },
        "meters" : {
          "estimated_diameter_min" : 16.7708462163,
          "estimated_diameter_max" : 37.5007521798
        },
        "miles" : {
          "estimated_diameter_min" : 0.0104209175,
          "estimated_diameter_max" : 0.0233018799
        },
        "feet" : {
          "estimated_diameter_min" : 55.0224631002,
          "estimated_diameter_max" : 123.0339677816
        }
      },
      "is_potentially_hazardous_asteroid" : false,
      "close_approach_data" : [ {
        "close_approach_date" : "2011-03-22",
        "epoch_date_close_approach" : 1300777200000,
        "relative_velocity" : {
          "kilometers_per_second" : "7.8345441218",
          "kilometers_per_hour" : "28204.3588383014",
          "miles_per_hour" : "17525.0917459435"
        },
        "miss_distance" : {
          "astronomical" : "0.2453869588",
          "lunar" : "95.4555282593",
          "kilometers" : "36709368",
          "miles" : "22810142"
        },
        "orbiting_body" : "Earth"
      } ],
      "orbital_data" : {
        "orbit_id" : "10",
        "orbit_determination_date" : "2017-04-06 08:56:28",
        "orbit_uncertainty" : "7",
        "minimum_orbit_intersection" : ".0177696",
        "jupiter_tisserand_invariant" : "6.538",
        "epoch_osculation" : "2458000.5",
        "eccentricity" : ".1975580839408608",
        "semi_major_axis" : ".9094014719554374",
        "inclination" : "5.49663808196154",
        "ascending_node_longitude" : "182.0911009762555",
        "orbital_period" : "316.7611464232228",
        "perihelion_distance" : ".7297418596229227",
        "perihelion_argument" : "36.36752086725384",
        "aphelion_distance" : "1.089061084287952",
        "perihelion_time" : "2457885.026092618268",
        "mean_anomaly" : "131.2364446423652",
        "mean_motion" : "1.136503021488014",
        "equinox" : "J2000"
      }
    } ]
  }
}